GLOBALSTAR M069         
1 31573U 07020C   26168.52781987 -.00000052  00000+0  37113-3 0  9993
2 31573  52.0026 251.1632 0002335 148.6760 316.2555 12.23471285878848
GLOBALSTAR M072         
1 31574U 07020D   26168.14572957 -.00000097  00000+0 -17567-3 0  9998
2 31574  51.9927 100.3553 0001414 332.5995 134.0459 11.91658387874978
GLOBALSTAR M066         
1 32265U 07048C   26168.89326060 -.00000140  00000+0 -38400-3 0  9998
2 32265  51.9605  55.8854 0005505  45.5367  37.2809 12.30387574860313
GLOBALSTAR M079         
1 37188U 10054A   26168.14544029 -.00000109  00000+0 -28705-4 0  9996
2 37188  52.0035 108.7965 0000714  24.2863  78.6582 12.62266081722547
GLOBALSTAR M074         
1 37189U 10054B   26168.15219354 -.00000114  00000+0 -56501-4 0  9999
2 37189  52.0008 108.0404 0000544  51.8526 322.0293 12.62268376723154
GLOBALSTAR M076         
1 37190U 10054C   26168.10050203 -.00000117  00000+0 -74510-4 0  9995
2 37190  52.0021 108.4009 0000723  42.4598 336.4883 12.62261791722865
GLOBALSTAR M077         
1 37191U 10054D   26168.96678987 -.00000092  00000+0 -24824-3 0  9999
2 37191  51.9920 177.3171 0002713 173.8534 197.7953 11.67547799721232
GLOBALSTAR M075         
1 37192U 10054E   26168.98807079 -.00000123  00000+0 -10727-3 0  9990
2 37192  51.9921 147.7536 0000196  26.0945   7.9768 12.62267356722048
GLOBALSTAR M073         
1 37193U 10054F   26168.03365280 -.00000084  00000+0  10957-3 0  9990
2 37193  52.0071  64.7596 0000926  47.1670 326.2489 12.62262251723914
GLOBALSTAR M083         
1 37739U 11033A   26168.85803508 -.00000091  00000+0  72405-4 0  9999
2 37739  51.9877  10.4783 0000935  68.0968  34.7269 12.62263140693034
GLOBALSTAR M088         
1 37740U 11033B   26168.51046493 -.00000081  00000+0  12967-3 0  9991
2 37740  52.0219 277.9669 0000696 127.7904 313.2022 12.62268751688532
GLOBALSTAR M091         
1 37741U 11033C   26168.52871881 -.00000078  00000+0  14625-3 0  9999
2 37741  51.9991 240.8765 0000295 153.4299 311.5236 12.62263975689321
GLOBALSTAR M085         
1 37742U 11033D   26167.81729558 -.00000099  00000+0  28746-4 0  9997
2 37742  52.0102 194.3332 0000120 286.8831 243.7708 12.62264155689748
GLOBALSTAR M081         
1 37743U 11033E   26168.99559282 -.00000100  00000+0  18964-4 0  9997
2 37743  51.9933 193.1823 0000104  89.3123 277.9497 12.62265100690043
GLOBALSTAR M089         
1 37744U 11033F   26168.96160515 -.00000116  00000+0 -69671-4 0  9991
2 37744  51.9907 147.4432 0000364  83.3512 310.2713 12.62267235690882
GLOBALSTAR M084         
1 38040U 11080A   26168.91190081 -.00000096  00000+0  45930-4 0  9997
2 38040  52.0028  15.0760 0001095  87.0052  20.5781 12.62267557668859
GLOBALSTAR M080         
1 38041U 11080B   26168.97120002 -.00000086  00000+0  98666-4 0  9993
2 38041  52.0081  16.6141 0000389  69.7974  77.4297 12.62269473668980
GLOBALSTAR M082         
1 38042U 11080C   26168.65529152 -.00000096  00000+0  40722-4 0  9999
2 38042  52.0101 333.0768 0000528  99.0019 342.0144 12.62263629669650
GLOBALSTAR M092         
1 38043U 11080D   26168.86594109 -.00000094  00000+0  55240-4 0  9996
2 38043  52.0096  62.8319 0000709  63.9339  13.7946 12.62266971668136
GLOBALSTAR M090         
1 38044U 11080E   26168.22664929 -.00000101  00000+0  16658-4 0  9994
2 38044  52.0142 328.3371 0000790  91.7049  79.5707 12.62269064669710
GLOBALSTAR M086         
1 38045U 11080F   26168.62435766 -.00000092  00000+0  67183-4 0  9992
2 38045  51.9914 327.0559 0001691  68.5234  11.9009 12.62286738669711
GLOBALSTAR M097         
1 39072U 13005A   26168.47962440 -.00000084  00000+0  11052-3 0  9993
2 39072  52.0038 242.4471 0000290 127.5163 232.5730 12.62247231616949
GLOBALSTAR M093         
1 39073U 13005B   26168.37365131 -.00000078  00000+0  14285-3 0  9991
2 39073  52.0095 236.1160 0000191  91.0737 269.0152 12.62265989616886
GLOBALSTAR M094         
1 39074U 13005C   26168.21517829 -.00000129  00000+0 -14224-3 0  9999
2 39074  51.9929 150.7134 0000407   2.4046 357.6823 12.62268548618472
GLOBALSTAR M096         
1 39075U 13005D   26168.38702496 -.00000098  00000+0  33815-4 0  9996
2 39075  52.0049 198.9931 0000040 286.0756  74.0106 12.62265665617412
GLOBALSTAR M078         
1 39076U 13005E   26168.51841253 -.00000163  00000+0 -33190-3 0  9996
2 39076  51.9885 282.6019 0000517 228.4164 131.6658 12.62257595616053
GLOBALSTAR M095         
1 39077U 13005F   26168.62434387 -.00000083  00000+0  11644-3 0  9995
2 39077  52.0091 279.8845 0000223 131.9022 228.1864 12.62263434615920
GLOBALSTAR M087         
1 52888U 22064A   26168.87513293 -.00000089  00000+0  81426-4 0  9998
2 52888  52.0011  60.3581 0000768  40.2386 319.8538 12.62269077191223
